BEIDOU-3 M13 (C32)      
1 43622U 18072A   26179.27497689 -.00000067  00000+0  00000+0 0  9994
2 43622  56.6346  62.2932 0006901 331.0537  28.9612  1.86231424 52861
BEIDOU-3 M14 (C33)      
1 43623U 18072B   26180.21432763 -.00000058  00000+0  00000+0 0  9993
2 43623  56.6369  62.2566 0005865   5.5220 354.5425  1.86231476 52878
BEIDOU-3 M16 (C35)      
1 43647U 18078A   26179.83251074 -.00000080  00000+0  00000+0 0  9990
2 43647  54.0786 299.5778 0006917  40.5886 319.4668  1.86232470 52374
BEIDOU-3 M15 (C34)      
1 43648U 18078B   26179.96178929 -.00000079  00000+0  00000+0 0  9990
2 43648  54.0740 299.5736 0003927  58.0556 301.9871  1.86232603 52397
BEIDOU-3 M17 (C36)      
1 43706U 18093A   26177.50233032  .00000095  00000+0  00000+0 0  9994
2 43706  54.1697 181.9800 0010136 292.4713 110.1482  1.86228594 51716
BEIDOU-3 M18 (C37)      
1 43707U 18093B   26177.30216318  .00000097  00000+0  00000+0 0  9993
2 43707  54.1702 181.9788 0008135 321.1510  38.8204  1.86226640 51707
BEIDOU-3 IGSO-1 (C38)   
1 44204U 19023A   26179.48568773 -.00000206  00000+0  00000+0 0  9999
2 44204  58.7105  37.5330 0025747 224.4783 307.9858  1.00288999  7326
BEIDOU-2 G8 (C01)       
1 44231U 19027A   26178.97744683 -.00000238  00000+0  00000+0 0  9997
2 44231   1.6855  74.5233 0009835 285.1014  52.8069  1.00268598 26187
BEIDOU-3 M24 (C46)      
1 44542U 19061A   26179.51848630  .00000079  00000+0  00000+0 0  9990
2 44542  54.3968 182.3453 0008540 358.6533   1.3666  1.86229281 46003
BEIDOU-3 M23 (C45)      
1 44543U 19061B   26179.98127272  .00000076  00000+0  00000+0 0  9991
2 44543  54.3959 182.2982 0005837 339.0191 242.7984  1.86227665 46018
BEIDOU-3 M22 (C44)      
1 44793U 19078A   26179.35847846 -.00000084  00000+0  00000+0 0  9993
2 44793  53.9250 299.4342 0006295  52.2108 307.8484  1.86227483 44852
BEIDOU-3 M21 (C43)      
1 44794U 19078B   26178.96140830 -.00000087  00000+0  00000+0 0  9992
2 44794  53.8982 299.4091 0003978  49.1157 310.9195  1.86227959 44851
BEIDOU-3 M19 (C41)      
1 44864U 19090A   26179.35129987 -.00000067  00000+0  00000+0 0  9996
2 44864  56.5682  62.4212 0017425 297.4344 161.4191  1.86231816 44444
